STARLINK-1863_new
1 17150C 20088AE  21326.12259468  .00001092  00000-0  73195-4 0  3261
2 17150  53.0512 133.1958 0001592  82.9377 311.9811 15.06388875    14
STARLINK-1863_old
1 27150C 20088AE  21325.12658860  .00000836  00000-0  56035-4 0  3257
2 27150  53.0513 137.6670 0001598  81.8295 308.7605 15.06387301    16
